ONEWEB-0264             
1 48982U 21060R   23244.45684639  .00000108  00000+0  24804-3 0  9999
2 48982  87.8996  71.7581 0001822  89.6839 270.4501 13.16592702105411
ONEWEB-0266             
1 48984U 21060T   23244.25102636  .00000397  00000+0  10051-2 0  9999
2 48984  87.8995  71.7884 0001620  99.4966 260.6348 13.16590838105377
ONEWEB-0267             
1 48985U 21060U   23244.48955133  .00000149  00000+0  35645-3 0  9995
2 48985  87.8976  71.7413 0001980 102.1805 257.9548 13.16593697105410
ONEWEB-0268             
1 48986U 21060V   23244.53390710  .00000517  00000+0  13185-2 0  9999
2 48986  87.8978  71.7347 0001613  89.6574 270.4742 13.16595339105684
ONEWEB-0269             
1 48987U 21060W   23244.28691129  .00000444  00000+0  11274-2 0  9996
2 48987  87.9080  71.7770 0001708  90.8538 269.2788 13.16597891105422
ONEWEB-0270             
1 48988U 21060X   23244.45577008  .00000108  00000+0  24882-3 0  9992
2 48988  87.8983  71.7649 0002458  97.1150 263.0260 13.16597773105484
ONEWEB-0271             
1 48989U 21060Y   23244.29110888  .00000096  00000+0  21650-3 0  9990
2 48989  87.8981  71.7733 0002113 101.0657 259.0711 13.16596107105466
ONEWEB-0272             
1 48990U 21060Z   23244.23833679 -.00000302  00000+0 -82417-3 0  9996
2 48990  87.9080  71.7999 0002011  99.0072 261.1286 13.16594144105401
